H-2A R/B                
1 28932U 06002B   26192.96759464  .00005099  00000+0  24366-3 0  9998
2 28932  98.2582 351.0476 0050612 176.9533 183.2017 15.18413845113281
RESURS-DK 1             
1 29228U 06021A   26192.62498360  .00001011  00000+0  62717-4 0  9999
2 29228  69.9312 276.2899 0006915 275.2250  84.8127 15.13311404106271
CZ-4B R/B               
1 29507U 06046C   26193.10606043  .00002345  00000+0  11739-3 0  9997
2 29507  97.5443 237.6364 0032259 192.9535 167.0874 15.17966223 78913
CZ-2C R/B               
1 31114U 07010B   26193.28044864  .00000018  00000+0  27573-4 0  9991
2 31114  98.4116 300.4065 0057827 292.4166  67.0893 14.20281357997403
COSMO-SKYMED 1          
1 31598U 07023A   26193.33159914  .00001290  00000+0  11674-3 0  9997
2 31598  97.8843  25.4001 0001188 102.0116 258.1239 14.97210910 33558
COSMOS 2428             
1 31792U 07029A   26192.63907471  .00000175  00000+0  11955-3 0  9993
2 31792  70.9382 303.1376 0007178  88.1796 272.0147 14.12932455981601
SL-16 R/B               
1 31793U 07029B   26192.65116434 -.00000003  00000+0  23494-4 0  9990
2 31793  70.9748 271.8031 0002041 256.6911 209.7663 14.14850744982908
KORONAS-FOTON           
1 33504U 09003A   26192.86858644  .00008175  00000+0  16498-3 0  9997
2 33504  82.4297 146.5036 0012389  72.5138 287.7464 15.46244824964910
CZ-2C R/B               
1 37731U 11030B   26192.89633321  .00000579  00000+0  79146-4 0  9992
2 37731  97.8668 147.8393 0050985 307.1677 116.7810 14.81528551808482
H-2A R/B                
1 38341U 12025E   26192.97509808  .00000814  00000+0  77947-4 0  9995
2 38341  98.4848 170.1683 0042324 266.0127  93.6253 14.95832923766796
SHIJIAN-16 (SJ-16)      
1 39358U 13057A   26193.30716558  .00001410  00000+0  13926-3 0  9999
2 39358  74.9737 309.1042 0015878 171.8877 188.2572 14.92668882690095
SL-4 R/B                
1 39679U 14021B   26193.14115566  .00005567  00000+0  11874-3 0  9998
2 39679  51.6063  88.4767 0089812 197.2226 162.5706 15.42441534675462
ALOS-2                  
1 39766U 14029A   26193.29859191  .00001016  00000+0  14292-3 0  9990
2 39766  97.9225 290.1033 0001578  94.5148 265.6244 14.79469856655292
YAOGAN-29               
1 41038U 15069A   26193.27576662 -.00000189  00000+0 -16626-4 0  9993
2 41038  98.0027 221.9469 0001007  15.2898 344.8345 14.83103860574346
ASTRO-H (HITOMI)        
1 41337U 16012A   26193.27604439  .00001503  00000+0  83007-4 0  9994
2 41337  30.9989 272.1447 0009592 145.9098 214.2158 15.10625106571087
HXMT (HUIYAN)           
1 42758U 17034A   26193.06295352  .00002958  00000+0  14977-3 0  9998
2 42758  43.0151  44.5064 0032578 301.6112  58.1559 15.18672268501447
SAOCOM 1A               
1 43641U 18076A   26193.24995497 -.00000403  00000+0 -44105-4 0  9996
2 43641  97.8890  19.6347 0001449  83.0760 277.0618 14.82143974419810
H-2A R/B                
1 43682U 18084L   26192.85849294  .00012377  00000+0  25311-3 0  9997
2 43682  98.8545  77.1554 0020679 312.9103  47.0405 15.46112925424934
SAOCOM 1B               
1 46265U 20059A   26193.28117905  .00000508  00000+0  70373-4 0  9999
2 46265  97.8893  18.7615 0001566  82.2592 277.8799 14.82157787317205
CSS (TIANHE)            
1 48274U 21035A   26193.26640833  .00000809  00000+0  14738-4 0  9992
2 48274  41.4687 169.5849 0002450 291.0360  69.0216 15.58035047297089
COSMOS 2550             
1 48865U 21056A   26193.32488843  .00000599  00000+0  24042-4 0  9994
2 48865  67.1435  23.8662 0008431 270.9704  89.0484 15.33806320282579
CZ-2C R/B               
1 52794U 22058K   26192.98753017  .00028373  00000+0  29589-3 0  9992
2 52794  50.1857  34.3009 0030434   9.2054 350.9472 15.63671011229529
CZ-2C R/B               
1 54039U 22132E   26192.58017608  .00043213  00000+0  29533-3 0  9993
2 54039  97.2899 200.7470 0010135 357.5073   2.6140 15.74627248209782
GSLV R/B                
1 54149U 22138AN  26193.24637013  .00001408  00000+0  11808-3 0  9999
2 54149  87.3818 124.5695 0023807  61.8951 298.4683 14.97374381202564
XRISM                   
1 57800U 23137A   26193.20097884  .00002076  00000+0  11031-3 0  9998
2 57800  31.0006 197.5466 0007830 216.7533 143.2569 15.12656467156651
ACS3                    
1 59588U 24077B   26192.74048558  .00010248  00000+0  71307-2 0  9990
2 59588  97.1723 106.0854 0121011  40.7850 320.2298 13.95349463111466
SPACEMOBILE-003         
1 61045U 24163A   26193.12443383  .00000008  00000+0  15017-4 0  9996
2 61045  52.9645 194.7701 0003953 176.8899 183.2120 15.20757146101564
SPACEMOBILE-005         
1 61046U 24163B   26192.45071654  .00003056  00000+0  15155-3 0  9998
2 61046  52.9788 197.8076 0008894 184.8633 175.2276 15.20765383101459
SPACEMOBILE-001         
1 61047U 24163C   26192.44911905  .00000309  00000+0  28551-4 0  9993
2 61047  52.9736 197.5273 0007475 183.3179 176.7767 15.20792937101458
SPACEMOBILE-002         
1 61048U 24163D   26192.03876027  .00008243  00000+0  38281-3 0  9999
2 61048  52.9623 199.4399 0006620 180.9990 179.0992 15.20841812101395
